IRIDIUM 171             
1 43929U 19002H   24356.57156222 -.00000074  00000+0 -33558-4 0  9999
2 43929  86.3994 220.5441 0001776  98.9443 261.1954 14.34216831311189
IRIDIUM 170             
1 43930U 19002J   24356.57898130  .00001678  00000+0  26217-3 0  9994
2 43930  86.6109 220.3279 0002339  84.4725 275.6758 14.72250579319424
IRIDIUM 167             
1 43931U 19002K   24356.14660744  .00000471  00000+0  16112-3 0  9999
2 43931  86.3982 220.4934 0001604  90.5628 269.5752 14.34215650311128
IRIDIUM 181             
1 56726U 23068S   24356.26172800  .00000797  00000+0  22956-3 0  9990
2 56726  86.6866 282.9121 0002183  95.8777 264.2673 14.43564204 84128
IRIDIUM 177             
1 56727U 23068T   24356.54928661  .00002398  00000+0  31205-3 0  9992
2 56727  86.1977 226.3837 0002014  79.5345 280.6103 14.80234565 86099
IRIDIUM 174             
1 56728U 23068U   24356.54385451  .00002321  00000+0  30199-3 0  9994
2 56728  86.1983 226.5049 0002230  92.7745 267.3731 14.80235022 86093
IRIDIUM 178             
1 56729U 23068V   24356.26803093  .00001986  00000+0  25805-3 0  9995
2 56729  86.5774 252.9502 0002535  95.8820 264.2691 14.80215183 86052
IRIDIUM 179             
1 56730U 23068W   24356.26259496  .00000296  00000+0  35482-4 0  9995
2 56730  86.6784 259.4429 0002514  83.8582 276.2926 14.80233800 86055
